KUIPER-00522            
1 69602U 26140L   26197.54584076  .00014289  00000+0  37748-3 0  9995
2 69602  51.8765 256.4972 0013125 273.5705  86.3781 15.38614832  5754
KUIPER-00528            
1 69603U 26140M   26197.57708162  .00015171  00000+0  41531-3 0  9999
2 69603  51.8776 256.6977 0005937   4.3015 355.8022 15.37521210  5758
KUIPER-00532            
1 69604U 26140N   26198.17455332  .00014306  00000+0  40410-3 0  9999
2 69604  51.8771 253.9479 0005661  45.9392 314.2060 15.36595235  5842
KUIPER-00533            
1 69605U 26140P   26198.14524956  .00023917  00000+0  63115-3 0  9991
2 69605  51.8757 253.7606 0008314 339.0364  21.0281 15.38315842  5845
KUIPER-00534            
1 69606U 26140Q   26198.12510833  .00014490  00000+0  38079-3 0  9996
2 69606  51.8813 253.6415 0013256 277.6915  82.2567 15.38762120  5847
KUIPER-00537            
1 69607U 26140R   26197.42014725 -.00010689  00000+0 -30727-3 0  9998
2 69607  51.8787 257.8914 0010671  51.7897 308.4048 15.34125323  5724
KUIPER-00538            
1 69608U 26140S   26198.15660031  .00014296  00000+0  38888-3 0  9999
2 69608  51.8789 253.8397 0006734 350.5657   9.5202 15.37766687  5848
KUIPER-00540            
1 69609U 26140T   26197.51929576  .00013040  00000+0  36471-3 0  9993
2 69609  51.8800 257.0682 0006665  27.2165 332.9170 15.36985728  5745
KUIPER-00541            
1 69610U 26140U   26198.14474906 -.00000996  00000+0 -15470-4 0  9992
2 69610  51.8772 253.7704 0008099 334.6508  25.4081 15.38374957  5846
KUIPER-00542            
1 69611U 26140V   26197.55898344  .00012719  00000+0  34107-3 0  9994
2 69611  51.8777 256.5811 0007895 311.2983  48.7323 15.38313003  5755
KUIPER-00543            
1 69612U 26140W   26197.45894896  .00006734  00000+0  19447-3 0  9992
2 69612  51.8773 257.3997 0008025  39.6029 320.5542 15.36847698  5736
KUIPER-00544            
1 69613U 26140X   26197.43362012  .00015393  00000+0  41195-3 0  9997
2 69613  51.8777 257.2376 0006941 323.8770  36.1747 15.38205711  5730
KUIPER-00546            
1 69614U 26140Y   26198.19186844  .00019921  00000+0  53091-3 0  9998
2 69614  51.8777 253.3281 0013911 272.1248  87.8146 15.38069352  5852
KUIPER-00547            
1 69615U 26140Z   26198.14277304  .00018505  00000+0  49627-3 0  9993
2 69615  51.8802 253.7562 0010748 300.4134  59.5791 15.37965255  5849
KUIPER-00549            
1 69616U 26140AA  26197.57891654  .00013244  00000+0  36576-3 0  9994
2 69616  51.8779 256.7102 0007925  19.5782 340.5507 15.37359191  5750
KUIPER-00550            
1 69617U 26140AB  26197.69809244 -.00034394  00000+0 -10920-2 0  9997
2 69617  51.8796 256.7438 0007925  67.2224 292.9597 15.31913173  5763
KUIPER-00551            
1 69618U 26140AC  26197.55006505  .00016131  00000+0  42958-3 0  9996
2 69618  51.8779 256.5241 0012510 285.0023  74.9579 15.38269864  5753
KUIPER-00554            
1 69619U 26140AD  26198.14085266  .00014041  00000+0  37862-3 0  9990
2 69619  51.8770 253.7329 0011216 300.6753  59.3128 15.38018775  5847
KUIPER-00555            
1 69620U 26140AE  26198.00002315  .00061659  00000+0  16195-2 0  9993
2 69620  51.8806 254.3925 0011402 285.8530  28.5865 15.37969251  5290
KUIPER-00556            
1 69621U 26140AF  26198.13655769  .00021744  00000+0  57332-3 0  9995
2 69621  51.8785 253.7105 0011525 277.0769  82.8908 15.38371238  5848
KUIPER-00557            
1 69622U 26140AG  26198.14732922 -.00002792  00000+0 -63982-4 0  9997
2 69622  51.8798 253.7806 0009566 307.0267  52.9844 15.37514067  5845
KUIPER-00560            
1 69623U 26140AH  26198.16668980  .00017493  00000+0  48454-3 0  9990
2 69623  51.8778 253.5812 0009172 319.5347 195.9536 15.37019122  5421
KUIPER-00561            
1 69624U 26140AJ  26197.42390590  .00012821  00000+0  33889-3 0  9994
2 69624  51.8812 257.1893 0007665 305.7051  54.3223 15.38751926  5735
KUIPER-00564            
1 69625U 26140AK  26198.14471031  .00009014  00000+0  25342-3 0  9990
2 69625  51.8796 253.7609 0008706 305.0494  54.9675 15.37236129  5846
KUIPER-00567            
1 69626U 26140AL  26198.00002315  .00049564  00000+0  12911-2 0  9992
2 69626  51.8760 254.3334 0012908 276.1952  61.5916 15.38300447  5800
KUIPER-00573            
1 69627U 26140AM  26198.15118052  .00014263  00000+0  39089-3 0  9999
2 69627  51.8770 253.7966 0009311 292.5254  67.4747 15.37517892  5841
KZ-11 R/B               
1 69628U 26138H   26193.90834216  .00780150  97501-5  75497-3 0  9998
2 69628  55.1520 167.7492 0377051 143.6026 219.1292 15.43010363  3894
CENTISPACE-1 GROUP 05 O*
1 69636U 26138J   26194.40472368 -.00000256  00000+0 -51944-4 0  9997
2 69636  55.1383 184.3032 0009547 341.3483  18.7141 14.15842380  3707
VICTUS HAZE PUMA        
1 69646U 26142A   26198.28484859  .00002157  00000+0  99242-4 0  9994
2 69646  97.4460  95.5635 0026403 259.4716 100.3545 15.21130675  4244
HOKUSHIN-1              
1 69648U 98067YH  26197.58154338  .00016901  00000+0  29229-3 0  9998
2 69648  51.6315 154.3536 0006217 335.9165  24.1533 15.51054092  4218
